{"type": "FeatureCollection", "features": [ {"type": "Feature", "properties": {"norad_id": 33867, "name": "IRIDIUM 33 DEB", "group": "iridium-33-debris", "lat": -41.31302059685438, "lon": 171.2184790287954, "alt_km": 357.2952627853183, "timestamp": "2025-12-16T17:51:11.317064+00:00", "meta": {"OBJECT_NAME": "IRIDIUM 33 DEB", "OBJECT_ID": "1997-051AL", "EPOCH": "2025-12-15T18:01:58.391328", "MEAN_MOTION": 15.73399907, "ECCENTRICITY": 0.0013557, "INCLINATION": 86.3645, "RA_OF_ASC_NODE": 348.5349, "ARG_OF_PERICENTER": 90.6354, "MEAN_ANOMALY": 269.6472, "EPHEMERIS_TYPE": 0, "CLASSIFICATION_TYPE": "U", "NORAD_CAT_ID": 33867, "ELEMENT_SET_NO": 999, "REV_AT_EPOCH": 89558, "BSTAR": 0.0061851426, "MEAN_MOTION_DOT": 0.00940589, "MEAN_MOTION_DDOT": 0}, "tle": {"line1": "1 33867U 97051AL  25349.75137027  .00940589  00000+0  61851-2 0  9991", "line2": "2 33867  86.3645 348.5349 0013557  90.6354 269.6472 15.73399907895589"}}, "geometry": {"type": "Point", "coordinates": [171.2184790287954, -41.31302059685438]}}, {"type": "Feature", "properties": {"norad_id": 33870, "name": "IRIDIUM 33 DEB", "group": "iridium-33-debris", "lat": -83.689323698002, "lon": 21.567107947421334, "alt_km": 751.9524176879222, "timestamp": "2025-12-16T17:51:11.317076+00:00", "meta": {"OBJECT_NAME": "IRIDIUM 33 DEB", "OBJECT_ID": "1997-051AP", "EPOCH": "2025-12-15T16:25:27.331104", "MEAN_MOTION": 14.45868605, "ECCENTRICITY": 0.00218243, "INCLINATION": 86.3749, "RA_OF_ASC_NODE": 56.9985, "ARG_OF_PERICENTER": 168.4927, "MEAN_ANOMALY": 354.9427, "EPHEMERIS_TYPE": 0, "CLASSIFICATION_TYPE": "U", "NORAD_CAT_ID": 33870, "ELEMENT_SET_NO": 999, "REV_AT_EPOCH": 88179, "BSTAR": 0.00053275063, "MEAN_MOTION_DOT": 1.917e-05, "MEAN_MOTION_DDOT": 0}, "tle": {"line1": "1 33870U 97051AP  25349.68434411  .00001917  00000+0  53275-3 0  9999", "line2": "2 33870  86.3749  56.9985 0021824 168.4927 354.9427 14.45868605881790"}}, "geometry": {"type": "Point", "coordinates": [21.567107947421334, -83.689323698002]}}, {"type": "Feature", "properties": {"norad_id": 33881, "name": "IRIDIUM 33 DEB", "group": "iridium-33-debris", "lat": -61.397148499373806, "lon": 98.34545717218272, "alt_km": 742.9775076242067, "timestamp": "2025-12-16T17:51:11.317087+00:00", "meta": {"OBJECT_NAME": "IRIDIUM 33 DEB", "OBJECT_ID": "1997-051BA", "EPOCH": "2025-12-15T19:37:15.876768", "MEAN_MOTION": 14.56633936, "ECCENTRICITY": 0.00615251, "INCLINATION": 86.3857, "RA_OF_ASC_NODE": 105.4046, "ARG_OF_PERICENTER": 164.6963, "MEAN_ANOMALY": 318.7937, "EPHEMERIS_TYPE": 0, "CLASSIFICATION_TYPE": "U", "NORAD_CAT_ID": 33881, "ELEMENT_SET_NO": 999, "REV_AT_EPOCH": 87545, "BSTAR": 0.0012951188, "MEAN_MOTION_DOT": 5.948e-05, "MEAN_MOTION_DDOT": 0}, "tle": {"line1": "1 33881U 97051BA  25349.81754487  .00005948  00000+0  12951-2 0  9997", "line2": "2 33881  86.3857 105.4046 0061525 164.6963 318.7937 14.56633936875459"}}, "geometry": {"type": "Point", "coordinates": [98.34545717218272, -61.397148499373806]}}, {"type": "Feature", "properties": {"norad_id": 33884, "name": "IRIDIUM 33 DEB", "group": "iridium-33-debris", "lat": -4.8639151407824714, "lon": -171.67919783708405, "alt_km": 644.5828733078906, "timestamp": "2025-12-16T17:51:11.317098+00:00", "meta": {"OBJECT_NAME": "IRIDIUM 33 DEB", "OBJECT_ID": "1997-051BD", "EPOCH": "2025-12-15T20:25:31.255680", "MEAN_MOTION": 14.77493493, "ECCENTRICITY": 0.00093117, "INCLINATION": 86.3697, "RA_OF_ASC_NODE": 8.4142, "ARG_OF_PERICENTER": 311.8512, "MEAN_ANOMALY": 167.1781, "EPHEMERIS_TYPE": 0, "CLASSIFICATION_TYPE": "U", "NORAD_CAT_ID": 33884, "ELEMENT_SET_NO": 999, "REV_AT_EPOCH": 88893, "BSTAR": 0.00087855723, "MEAN_MOTION_DOT": 6.291e-05, "MEAN_MOTION_DDOT": 0}, "tle": {"line1": "1 33884U 97051BD  25349.85105620  .00006291  00000+0  87856-3 0  9992", "line2": "2 33884  86.3697   8.4142 0009311 311.8512 167.1781 14.77493493888939"}}, "geometry": {"type": "Point", "coordinates": [-171.67919783708405, -4.8639151407824714]}}, {"type": "Feature", "properties": {"norad_id": 33886, "name": "IRIDIUM 33 DEB", "group": "iridium-33-debris", "lat": -54.32939313894459, "lon": -109.40084534666195, "alt_km": 769.7628937604031, "timestamp": "2025-12-16T17:51:11.317109+00:00", "meta": {"OBJECT_NAME": "IRIDIUM 33 DEB", "OBJECT_ID": "1997-051BF", "EPOCH": "2025-12-15T23:10:27.057216", "MEAN_MOTION": 14.36055791, "ECCENTRICITY": 0.00125362, "INCLINATION": 86.383, "RA_OF_ASC_NODE": 65.8711, "ARG_OF_PERICENTER": 229.9815, "MEAN_ANOMALY": 303.3561, "EPHEMERIS_TYPE": 0, "CLASSIFICATION_TYPE": "U", "NORAD_CAT_ID": 33886, "ELEMENT_SET_NO": 999, "REV_AT_EPOCH": 88098, "BSTAR": 0.00018200983, "MEAN_MOTION_DOT": 5.49e-06, "MEAN_MOTION_DDOT": 0}, "tle": {"line1": "1 33886U 97051BF  25349.96559094  .00000549  00000+0  18201-3 0  9992", "line2": "2 33886  86.3830  65.8711 0012536 229.9815 303.3561 14.36055791880984"}}, "geometry": {"type": "Point", "coordinates": [-109.40084534666195, -54.32939313894459]}}, {"type": "Feature", "properties": {"norad_id": 33887, "name": "IRIDIUM 33 DEB", "group": "iridium-33-debris", "lat": -7.560517832912857, "lon": -177.84163356735712, "alt_km": 768.5577517622914, "timestamp": "2025-12-16T17:51:11.317121+00:00", "meta": {"OBJECT_NAME": "IRIDIUM 33 DEB", "OBJECT_ID": "1997-051BG", "EPOCH": "2025-12-15T19:49:33.280896", "MEAN_MOTION": 14.37223673, "ECCENTRICITY": 0.00047292, "INCLINATION": 86.3043, "RA_OF_ASC_NODE": 2.0622, "ARG_OF_PERICENTER": 213.483, "MEAN_ANOMALY": 268.2905, "EPHEMERIS_TYPE": 0, "CLASSIFICATION_TYPE": "U", "NORAD_CAT_ID": 33887, "ELEMENT_SET_NO": 999, "REV_AT_EPOCH": 88209, "BSTAR": 0.0001410094, "MEAN_MOTION_DOT": 4.39e-06, "MEAN_MOTION_DDOT": 0}, "tle": {"line1": "1 33887U 97051BG  25349.82607964  .00000439  00000+0  14101-3 0  9991", "line2": "2 33887  86.3043   2.0622 0004729 213.4830 268.2905 14.37223673882097"}}, "geometry": {"type": "Point", "coordinates": [-177.84163356735712, -7.560517832912857]}}, {"type": "Feature", "properties": {"norad_id": 33953, "name": "IRIDIUM 33 DEB", "group": "iridium-33-debris", "lat": -56.14631239128285, "lon": 46.633617834358375, "alt_km": 726.1337949181143, "timestamp": "2025-12-16T17:51:11.317133+00:00", "meta": {"OBJECT_NAME": "IRIDIUM 33 DEB", "OBJECT_ID": "1997-051BN", "EPOCH": "2025-12-15T10:48:32.661792", "MEAN_MOTION": 14.55354626, "ECCENTRICITY": 0.0018265, "INCLINATION": 86.3848, "RA_OF_ASC_NODE": 52.603, "ARG_OF_PERICENTER": 94.655, "MEAN_ANOMALY": 276.5427, "EPHEMERIS_TYPE": 0, "CLASSIFICATION_TYPE": "U", "NORAD_CAT_ID": 33953, "ELEMENT_SET_NO": 999, "REV_AT_EPOCH": 88343, "BSTAR": 0.00078160198, "MEAN_MOTION_DOT": 3.418e-05, "MEAN_MOTION_DDOT": 0}, "tle": {"line1": "1 33953U 97051BN  25349.45037803  .00003418  00000+0  78160-3 0  9998", "line2": "2 33953  86.3848  52.6030 0018265  94.6550 276.5427 14.55354626883439"}}, "geometry": {"type": "Point", "coordinates": [46.633617834358375, -56.14631239128285]}}, {"type": "Feature", "properties": {"norad_id": 33960, "name": "IRIDIUM 33 DEB", "group": "iridium-33-debris", "lat": 0.4418894170578449, "lon": 107.59707872385022, "alt_km": 618.4388596001809, "timestamp": "2025-12-16T17:51:11.317144+00:00", "meta": {"OBJECT_NAME": "IRIDIUM 33 DEB", "OBJECT_ID": "1997-051BV", "EPOCH": "2025-12-15T20:16:06.180672", "MEAN_MOTION": 14.85357541, "ECCENTRICITY": 0.00074313, "INCLINATION": 86.2529, "RA_OF_ASC_NODE": 288.0502, "ARG_OF_PERICENTER": 57.1848, "MEAN_ANOMALY": 356.1454, "EPHEMERIS_TYPE": 0, "CLASSIFICATION_TYPE": "U", "NORAD_CAT_ID": 33960, "ELEMENT_SET_NO": 999, "REV_AT_EPOCH": 88913, "BSTAR": 0.0020732514, "MEAN_MOTION_DOT": 0.00017892, "MEAN_MOTION_DDOT": 0}, "tle": {"line1": "1 33960U 97051BV  25349.84451598  .00017892  00000+0  20733-2 0  9993", "line2": "2 33960  86.2529 288.0502 0007431  57.1848 356.1454 14.85357541889138"}}, "geometry": {"type": "Point", "coordinates": [107.59707872385022, 0.4418894170578449]}}, {"type": "Feature", "properties": {"norad_id": 33966, "name": "IRIDIUM 33 DEB", "group": "iridium-33-debris", "lat": -12.867704038754985, "lon": 43.48358787347909, "alt_km": 737.0087129766962, "timestamp": "2025-12-16T17:51:11.317156+00:00", "meta": {"OBJECT_NAME": "IRIDIUM 33 DEB", "OBJECT_ID": "1997-051CB", "EPOCH": "2025-12-15T22:51:09.786240", "MEAN_MOTION": 14.49607788, "ECCENTRICITY": 0.00078112, "INCLINATION": 86.3927, "RA_OF_ASC_NODE": 44.6489, "ARG_OF_PERICENTER": 177.5484, "MEAN_ANOMALY": 0.8363, "EPHEMERIS_TYPE": 0, "CLASSIFICATION_TYPE": "U", "NORAD_CAT_ID": 33966, "ELEMENT_SET_NO": 999, "REV_AT_EPOCH": 88488, "BSTAR": 0.00039929848, "MEAN_MOTION_DOT": 1.553e-05, "MEAN_MOTION_DDOT": 0}, "tle": {"line1": "1 33966U 97051CB  25349.95219660  .00001553  00000+0  39930-3 0  9990", "line2": "2 33966  86.3927  44.6489 0007811 177.5484   0.8363 14.49607788884882"}}, "geometry": {"type": "Point", "coordinates": [43.48358787347909, -12.867704038754985]}}, {"type": "Feature", "properties": {"norad_id": 34071, "name": "IRIDIUM 33 DEB", "group": "iridium-33-debris", "lat": 51.45513267744918, "lon": 20.68928543241624, "alt_km": 717.6183102492496, "timestamp": "2025-12-16T17:51:11.317166+00:00", "meta": {"OBJECT_NAME": "IRIDIUM 33 DEB", "OBJECT_ID": "1997-051CE", "EPOCH": "2025-12-15T20:04:38.262144", "MEAN_MOTION": 14.49479192, "ECCENTRICITY": 0.00100068, "INCLINATION": 86.3457, "RA_OF_ASC_NODE": 16.4826, "ARG_OF_PERICENTER": 99.5033, "MEAN_ANOMALY": 260.7302, "EPHEMERIS_TYPE": 0, "CLASSIFICATION_TYPE": "U", "NORAD_CAT_ID": 34071, "ELEMENT_SET_NO": 999, "REV_AT_EPOCH": 88379, "BSTAR": 0.00045761963, "MEAN_MOTION_DOT": 1.773e-05, "MEAN_MOTION_DDOT": 0}, "tle": {"line1": "1 34071U 97051CE  25349.83655396  .00001773  00000+0  45762-3 0  9999", "line2": "2 34071  86.3457  16.4826 0010006  99.5033 260.7302 14.49479192883798"}}, "geometry": {"type": "Point", "coordinates": [20.68928543241624, 51.45513267744918]}}]}